{
"type": "FeatureCollection",
"name": "trade-routes_1",
"features": [
{ "type": "Feature", "properties": { "route_id": "route_01", "from_zone": "zone_1", "to_zone": "zone_2", "route_type": "sea" }, "geometry": { "type": "LineString", "coordinates": [ [ 746.963513678135769, -1021.853365949450108 ], [ 720.96351367811792, -1101.853365949505132 ], [ 776.963513678156346, -1151.853365949539238 ], [ 736.963513678128948, -1233.853365949595627 ], [ 658.963513678075401, -1295.853365949638146 ], [ 592.963513678030154, -1395.853365949706586 ] ] } }
]
}
